{"type": "FeatureCollection", "features": [ {"type": "Feature", "properties": {"norad_id": 66052, "name": "HRC MONOBLOCK CAMERA", "group": "stations", "lat": 16.799501465180715, "lon": 98.35937073383754, "alt_km": 401.87894224595857, "timestamp": "2025-12-24T03:53:28.395464+00:00", "meta": {"OBJECT_NAME": "HRC MONOBLOCK CAMERA", "OBJECT_ID": "1998-067XR", "EPOCH": "2025-12-23T13:54:58.114656", "MEAN_MOTION": 15.54874715, "ECCENTRICITY": 0.0002185, "INCLINATION": 51.6307, "RA_OF_ASC_NODE": 87.4281, "ARG_OF_PERICENTER": 236.9109, "MEAN_ANOMALY": 123.1673, "EPHEMERIS_TYPE": 0, "CLASSIFICATION_TYPE": "U", "NORAD_CAT_ID": 66052, "ELEMENT_SET_NO": 999, "REV_AT_EPOCH": 1052, "BSTAR": 0.00053138, "MEAN_MOTION_DOT": 0.0003583, "MEAN_MOTION_DDOT": 0}, "tle": {"line1": "1 66052U 98067XR  25357.57983929  .00035830  00000+0  53138-3 0  9994", "line2": "2 66052  51.6307  87.4281 0002185 236.9109 123.1673 15.54874715 10527"}}, "geometry": {"type": "Point", "coordinates": [98.35937073383754, 16.799501465180715]}}, {"type": "Feature", "properties": {"norad_id": 66174, "name": "HTV-X1", "group": "stations", "lat": 48.8352286261998, "lon": 150.87986904795207, "alt_km": 412.34843316525803, "timestamp": "2025-12-24T03:53:28.395475+00:00", "meta": {"OBJECT_NAME": "HTV-X1", "OBJECT_ID": "2025-241A", "EPOCH": "2025-12-23T04:21:36.091008", "MEAN_MOTION": 15.49746572, "ECCENTRICITY": 0.00031904, "INCLINATION": 51.6323, "RA_OF_ASC_NODE": 90.7678, "ARG_OF_PERICENTER": 289.6661, "MEAN_ANOMALY": 70.3984, "EPHEMERIS_TYPE": 0, "CLASSIFICATION_TYPE": "U", "NORAD_CAT_ID": 66174, "ELEMENT_SET_NO": 999, "REV_AT_EPOCH": 51, "BSTAR": 0.00021350548, "MEAN_MOTION_DOT": 0.00011641, "MEAN_MOTION_DDOT": 0}, "tle": {"line1": "1 66174U 25241A   25357.18166772  .00011641  00000+0  21351-3 0  9995", "line2": "2 66174  51.6323  90.7678 0003190 289.6661  70.3984 15.49746572   511"}}, "geometry": {"type": "Point", "coordinates": [150.87986904795207, 48.8352286261998]}}, {"type": "Feature", "properties": {"norad_id": 66515, "name": "SZ-21 MODULE", "group": "stations", "lat": -27.621220440933694, "lon": -89.9874451466131, "alt_km": 377.7949531881086, "timestamp": "2025-12-24T03:53:28.395485+00:00", "meta": {"OBJECT_NAME": "SZ-21 MODULE", "OBJECT_ID": "2025-246C", "EPOCH": "2025-12-23T05:04:42.753216", "MEAN_MOTION": 15.63016962, "ECCENTRICITY": 0.00050368, "INCLINATION": 41.4769, "RA_OF_ASC_NODE": 312.1416, "ARG_OF_PERICENTER": 316.3209, "MEAN_ANOMALY": 43.7232, "EPHEMERIS_TYPE": 0, "CLASSIFICATION_TYPE": "U", "NORAD_CAT_ID": 66515, "ELEMENT_SET_NO": 999, "REV_AT_EPOCH": 608, "BSTAR": 0.00030579963, "MEAN_MOTION_DOT": 0.00028357, "MEAN_MOTION_DDOT": 0}, "tle": {"line1": "1 66515U 25246C   25357.21160594  .00028357  00000+0  30580-3 0  9995", "line2": "2 66515  41.4769 312.1416 0005036 316.3209  43.7232 15.63016962  6086"}}, "geometry": {"type": "Point", "coordinates": [-89.9874451466131, -27.621220440933694]}}, {"type": "Feature", "properties": {"norad_id": 66645, "name": "SHENZHOU-22", "group": "stations", "lat": -41.43710074101606, "lon": -144.2577468803118, "alt_km": 395.8546278688682, "timestamp": "2025-12-24T03:53:28.395496+00:00", "meta": {"OBJECT_NAME": "SHENZHOU-22", "OBJECT_ID": "2025-272A", "EPOCH": "2025-12-23T06:45:56.635200", "MEAN_MOTION": 15.59596422, "ECCENTRICITY": 0.0007971, "INCLINATION": 41.4686, "RA_OF_ASC_NODE": 312.6856, "ARG_OF_PERICENTER": 124.3462, "MEAN_ANOMALY": 235.8132, "EPHEMERIS_TYPE": 0, "CLASSIFICATION_TYPE": "U", "NORAD_CAT_ID": 66645, "ELEMENT_SET_NO": 999, "REV_AT_EPOCH": 26550, "BSTAR": 0.00022671035, "MEAN_MOTION_DOT": 0.00018298, "MEAN_MOTION_DDOT": 0}, "tle": {"line1": "1 66645U 25272A   25357.28190550  .00018298  00000+0  22671-3 0  9995", "line2": "2 66645  41.4686 312.6856 0007971 124.3462 235.8132 15.59596422265505"}}, "geometry": {"type": "Point", "coordinates": [-144.2577468803118, -41.43710074101606]}}, {"type": "Feature", "properties": {"norad_id": 66664, "name": "SOYUZ-MS 28", "group": "stations", "lat": 48.83590234972818, "lon": 150.88355705069355, "alt_km": 412.332579953345, "timestamp": "2025-12-24T03:53:28.395506+00:00", "meta": {"OBJECT_NAME": "SOYUZ-MS 28", "OBJECT_ID": "2025-275A", "EPOCH": "2025-12-23T12:05:53.115072", "MEAN_MOTION": 15.49754932, "ECCENTRICITY": 0.0003169, "INCLINATION": 51.6323, "RA_OF_ASC_NODE": 89.1709, "ARG_OF_PERICENTER": 291.024, "MEAN_ANOMALY": 69.0409, "EPHEMERIS_TYPE": 0, "CLASSIFICATION_TYPE": "U", "NORAD_CAT_ID": 66664, "ELEMENT_SET_NO": 999, "REV_AT_EPOCH": 411, "BSTAR": 0.00021071, "MEAN_MOTION_DOT": 0.00011486, "MEAN_MOTION_DDOT": 0}, "tle": {"line1": "1 66664U 25275A   25357.50408698  .00011486  00000+0  21071-3 0  9994", "line2": "2 66664  51.6323  89.1709 0003169 291.0240  69.0409 15.49754932  4114"}}, "geometry": {"type": "Point", "coordinates": [150.88355705069355, 48.83590234972818]}}, {"type": "Feature", "properties": {"norad_id": 66906, "name": "1998-067XS", "group": "stations", "lat": 20.49712253391274, "lon": -111.48192599735701, "alt_km": 411.55007690105504, "timestamp": "2025-12-24T03:53:28.395516+00:00", "meta": {"OBJECT_NAME": "1998-067XS", "OBJECT_ID": "1998-067XS", "EPOCH": "2025-12-23T13:19:00.111360", "MEAN_MOTION": 15.51136039, "ECCENTRICITY": 0.0002815, "INCLINATION": 51.6316, "RA_OF_ASC_NODE": 88.7613, "ARG_OF_PERICENTER": 256.8779, "MEAN_ANOMALY": 103.1896, "EPHEMERIS_TYPE": 0, "CLASSIFICATION_TYPE": "U", "NORAD_CAT_ID": 66906, "ELEMENT_SET_NO": 999, "REV_AT_EPOCH": 329, "BSTAR": 0.00048513, "MEAN_MOTION_DOT": 0.0002847, "MEAN_MOTION_DDOT": 0}, "tle": {"line1": "1 66906U 98067XS  25357.55486240  .00028470  00000+0  48513-3 0  9997", "line2": "2 66906  51.6316  88.7613 0002815 256.8779 103.1896 15.51136039  3290"}}, "geometry": {"type": "Point", "coordinates": [-111.48192599735701, 20.49712253391274]}}, {"type": "Feature", "properties": {"norad_id": 66907, "name": "1998-067XT", "group": "stations", "lat": -31.01631523130624, "lon": -65.94866042208989, "alt_km": 411.42666559742065, "timestamp": "2025-12-24T03:53:28.395527+00:00", "meta": {"OBJECT_NAME": "1998-067XT", "OBJECT_ID": "1998-067XT", "EPOCH": "2025-12-23T11:29:49.841376", "MEAN_MOTION": 15.52745506, "ECCENTRICITY": 0.0003882, "INCLINATION": 51.6313, "RA_OF_ASC_NODE": 89.0045, "ARG_OF_PERICENTER": 291.7662, "MEAN_ANOMALY": 68.2915, "EPHEMERIS_TYPE": 0, "CLASSIFICATION_TYPE": "U", "NORAD_CAT_ID": 66907, "ELEMENT_SET_NO": 999, "REV_AT_EPOCH": 328, "BSTAR": 0.0010349, "MEAN_MOTION_DOT": 0.00065231, "MEAN_MOTION_DDOT": 0}, "tle": {"line1": "1 66907U 98067XT  25357.47904909  .00065231  00000+0  10349-2 0  9997", "line2": "2 66907  51.6313  89.0045 0003882 291.7662  68.2915 15.52745506  3283"}}, "geometry": {"type": "Point", "coordinates": [-65.94866042208989, -31.01631523130624]}}, {"type": "Feature", "properties": {"norad_id": 66908, "name": "1998-067XU", "group": "stations", "lat": -34.875105082700365, "lon": -60.89123668635136, "alt_km": 411.03698525453365, "timestamp": "2025-12-24T03:53:28.395537+00:00", "meta": {"OBJECT_NAME": "1998-067XU", "OBJECT_ID": "1998-067XU", "EPOCH": "2025-12-23T11:28:24.726144", "MEAN_MOTION": 15.52842233, "ECCENTRICITY": 0.0003921, "INCLINATION": 51.6312, "RA_OF_ASC_NODE": 88.9976, "ARG_OF_PERICENTER": 289.9814, "MEAN_ANOMALY": 70.0754, "EPHEMERIS_TYPE": 0, "CLASSIFICATION_TYPE": "U", "NORAD_CAT_ID": 66908, "ELEMENT_SET_NO": 999, "REV_AT_EPOCH": 328, "BSTAR": 0.0010207, "MEAN_MOTION_DOT": 0.00064549, "MEAN_MOTION_DDOT": 0}, "tle": {"line1": "1 66908U 98067XU  25357.47806396  .00064549  00000+0  10207-2 0  9993", "line2": "2 66908  51.6312  88.9976 0003921 289.9814  70.0754 15.52842233  3283"}}, "geometry": {"type": "Point", "coordinates": [-60.89123668635136, -34.875105082700365]}}, {"type": "Feature", "properties": {"norad_id": 66909, "name": "SILVERSAT", "group": "stations", "lat": -39.94738117921788, "lon": -52.85460619537362, "alt_km": 410.4462273595818, "timestamp": "2025-12-24T03:53:28.395550+00:00", "meta": {"OBJECT_NAME": "SILVERSAT", "OBJECT_ID": "1998-067XV", "EPOCH": "2025-12-22T12:16:28.422912", "MEAN_MOTION": 15.52898333, "ECCENTRICITY": 0.0003866, "INCLINATION": 51.6306, "RA_OF_ASC_NODE": 93.7929, "ARG_OF_PERICENTER": 288.2093, "MEAN_ANOMALY": 71.8476, "EPHEMERIS_TYPE": 0, "CLASSIFICATION_TYPE": "U", "NORAD_CAT_ID": 66909, "ELEMENT_SET_NO": 999, "REV_AT_EPOCH": 313, "BSTAR": 0.0011325313, "MEAN_MOTION_DOT": 0.00071888, "MEAN_MOTION_DDOT": 0}, "tle": {"line1": "1 66909U 98067XV  25356.51144008  .00071888  00000+0  11325-2 0  9999", "line2": "2 66909  51.6306  93.7929 0003866 288.2093  71.8476 15.52898333  3134"}}, "geometry": {"type": "Point", "coordinates": [-52.85460619537362, -39.94738117921788]}}, {"type": "Feature", "properties": {"norad_id": 66910, "name": "1998-067XW", "group": "stations", "lat": -45.06014718599303, "lon": -41.88962203284943, "alt_km": 409.6879707191574, "timestamp": "2025-12-24T03:53:28.395560+00:00", "meta": {"OBJECT_NAME": "1998-067XW", "OBJECT_ID": "1998-067XW", "EPOCH": "2025-12-23T11:23:56.480928", "MEAN_MOTION": 15.5298943, "ECCENTRICITY": 0.0003988, "INCLINATION": 51.6309, "RA_OF_ASC_NODE": 88.9767, "ARG_OF_PERICENTER": 265.4983, "MEAN_ANOMALY": 94.5551, "EPHEMERIS_TYPE": 0, "CLASSIFICATION_TYPE": "U", "NORAD_CAT_ID": 66910, "ELEMENT_SET_NO": 999, "REV_AT_EPOCH": 328, "BSTAR": 0.00097986, "MEAN_MOTION_DOT": 0.00062264, "MEAN_MOTION_DDOT": 0}, "tle": {"line1": "1 66910U 98067XW  25357.47495927  .00062264  00000+0  97986-3 0  9992", "line2": "2 66910  51.6309  88.9767 0003988 265.4983  94.5551 15.52989430  3286"}}, "geometry": {"type": "Point", "coordinates": [-41.88962203284943, -45.06014718599303]}}]}